[{"OBJECT_NAME":"STARLINK-30843","OBJECT_ID":"2023-171M","EPOCH":"2026-03-09T22:00:01.999584","MEAN_MOTION":15.26715743,"ECCENTRICITY":0.00015491,"INCLINATION":42.9993,"RA_OF_ASC_NODE":283.9953,"ARG_OF_PERICENTER":280.512,"MEAN_ANOMALY":255.7863,"EPHEMERIS_TYPE":0,"CLASSIFICATION_TYPE":"U","NORAD_CAT_ID":58241,"ELEMENT_SET_NO":999,"REV_AT_EPOCH":573,"BSTAR":0.0010707785,"MEAN_MOTION_DOT":0.00028553,"MEAN_MOTION_DDOT":0},{"OBJECT_NAME":"TIANMU-1 22","OBJECT_ID":"2023-208D","EPOCH":"2026-03-09T22:39:05.738688","MEAN_MOTION":15.29457749,"ECCENTRICITY":0.00031332,"INCLINATION":97.4379,"RA_OF_ASC_NODE":184.9419,"ARG_OF_PERICENTER":351.9312,"MEAN_ANOMALY":8.1877,"EPHEMERIS_TYPE":0,"CLASSIFICATION_TYPE":"U","NORAD_CAT_ID":58663,"ELEMENT_SET_NO":999,"REV_AT_EPOCH":12215,"BSTAR":0.00038239675,"MEAN_MOTION_DOT":0.00010851,"MEAN_MOTION_DDOT":0}]
